[{"OBJECT_NAME":"STARLINK-6071","OBJECT_ID":"2023-046AS","EPOCH":"2026-03-09T22:00:01.999584","MEAN_MOTION":15.13448616,"ECCENTRICITY":0.00010506,"INCLINATION":43.0009,"RA_OF_ASC_NODE":144.552,"ARG_OF_PERICENTER":290.4958,"MEAN_ANOMALY":237.6983,"EPHEMERIS_TYPE":0,"CLASSIFICATION_TYPE":"U","NORAD_CAT_ID":56132,"ELEMENT_SET_NO":999,"REV_AT_EPOCH":578,"BSTAR":0.066007448,"MEAN_MOTION_DOT":0.01302642,"MEAN_MOTION_DDOT":0},{"OBJECT_NAME":"UNICORN-2L","OBJECT_ID":"2023-185R","EPOCH":"2026-03-09T22:52:50.754144","MEAN_MOTION":15.19481875,"ECCENTRICITY":0.00120211,"INCLINATION":97.5467,"RA_OF_ASC_NODE":142.778,"ARG_OF_PERICENTER":300.2318,"MEAN_ANOMALY":59.7725,"EPHEMERIS_TYPE":0,"CLASSIFICATION_TYPE":"U","NORAD_CAT_ID":58727,"ELEMENT_SET_NO":999,"REV_AT_EPOCH":11971,"BSTAR":0.00055843151,"MEAN_MOTION_DOT":0.0001181,"MEAN_MOTION_DDOT":0}]
